#aV2010 10 19  0  0   .00000000      96 DD+AD WGS84 FIT  NGA
## 1606 172800.00000000   900.00000000 55488  .0000000000000
+   32     1  2  3  4  5  6  7  8  9 10 11 12 13 14 15 16 17
+         18 19 20 21 22 23 24 25 26 27 28 29 30 31 32  0  0
+          0  0  0  0  0  0  0  0  0  0  0  0  0  0  0  0  0
+          0  0  0  0  0  0  0  0  0  0  0  0  0  0  0  0  0
+          0  0  0  0  0  0  0  0  0  0  0  0  0  0  0  0  0
++         0  0  0  0  0  0  0  0  0  0  0  0  0  0  0  0  0
++         0  0  0  0  0  0  0  0  0  0  0  0  0  0  0  0  0
++         0  0  0  0  0  0  0  0  0  0  0  0  0  0  0  0  0
++         0  0  0  0  0  0  0  0  0  0  0  0  0  0  0  0  0
++         0  0  0  0  0  0  0  0  0  0  0  0  0  0  0  0  0
%c cc cc ccc ccc cccc cccc cccc cccc ccccc ccccc ccccc ccccc
%c cc cc ccc ccc cccc cccc cccc cccc ccccc ccccc ccccc ccccc
%f  0.0000000  0.000000000  0.00000000000  0.000000000000000
%f  0.0000000  0.000000000  0.00000000000  0.000000000000000
%i    0    0    0    0      0      0      0      0         0
%i    0    0    0    0      0      0      0      0         0
/*      NGA, ST. LOUIS,MO.                                  
/*   EPHEMERIS COMPUTED FROM  3 DAYS OF DATA                
/* CCCCCCCCCCCCCCCCCCCCCCCCCCCCCCCCCCCCCCCCCCCCCCCCCCCCCCCCC
/* CCCCCCCCCCCCCCCCCCCCCCCCCCCCCCCCCCCCCCCCCCCCCCCCCCCCCCCCC
*  2010 10 19  2 45   .00000000                                                 
P  1 -26168.422495  -4889.184308   -736.688347   -173.737841                    
V  1   1198.124830  -2378.207923 -31773.404038      -.037568                    
P  2  20294.218808  -7978.308637 -14833.681950    296.462393                    
V  2  -9746.552176  16647.083455 -22754.045214       .026065                    
P  3 -15480.959780   4064.014448  20828.239145    623.519490                    
V  3 -12296.504264 -24567.686343  -3935.464471       .051166                    
P  4  16831.541720   3282.369235 -20551.762028    197.458433                    
V  4 -15752.996742  20284.406643  -9394.488037       .094854                    
P  5  23785.454110  -4028.187125  11203.227756    -53.660863                    
V  5  13615.748443   4781.902136 -27070.254569      -.059547                    
P  6 -17077.040016  -1401.053678  20495.686663    450.798852                    
V  6  -9267.077735 -24010.749351  -9260.616865      -.136536                    
P  7   -233.810153  19395.807506  18049.565244     -1.298280                    
V  7 -15900.272606  16640.177741 -18278.484147       .002260                    
P  8   9699.637585  10758.050549  22248.390119      6.872189                    
V  8 -19806.095136  20035.664720  -1586.156500       .000396                    
P  9  14859.182720 -21884.870965  -2822.207779     37.232698                    
V  9   3449.351283   -986.202070  31974.660892       .022786                    
P 10  25742.407315   6876.670444  -2621.561943    -55.550254                    
V 10  -3539.792292   2140.586550 -31085.698304      -.009907                    
P 11  -7911.570842  24795.536976  -4521.684844    -97.525325                    
V 11  -7104.007165   2710.589861  29552.618232      -.027541                    
P 12  10445.530968 -12561.806602 -20873.990080    -62.155825                    
V 12  26004.080879   5592.082238   9778.148991       .035804                    
P 13   4865.314524  25827.573092  -3781.755284    294.516105                    
V 13  -3045.817794  -3939.059912 -31982.088219      -.010454                    
P 14 -14770.466030 -17564.227909 -13334.547065     99.292303                    
V 14  -3588.306514 -16792.001492  25652.736189       .034838                    
P 15   8192.519193 -16473.622709  19129.527933   -194.152726                    
V 15  10246.563486  22106.462927  14796.880558       .048452                    
P 16 -25955.774349   -877.255359   6258.170324   -118.525665                    
V 16  -7270.648993  -3594.314846 -30534.540517      -.033283                    
P 17  14630.330515  19431.022262 -10820.759898    174.643771                    
V 17   2267.861604  13835.775551  27418.653872       .011874                    
P 18 -10987.846430 -16027.262679  18558.626932     99.647399                    
V 18  22806.649747   2761.327006  15769.454790       .021855                    
P 19  -9823.879525  15225.873625  19315.038653    -75.471957                    
V 19  -8106.569474 -23300.262078  14567.506116      -.033262                    
P 20  -8687.922576  14275.170672 -20769.845109     50.156485                    
V 20 -25812.793933  -4424.624793   7868.521334      -.003010                    
P 21  -3086.018897 -18299.063078  19138.456142    -96.136837                    
V 21  16908.453242 -16940.625194 -14357.614401      -.027257                    
P 22 -21430.928701 -12023.566577  10372.952398    160.612806                    
V 22  13301.561348   -570.103681  27179.314614      -.009915                    
P 23  -1747.037737  22656.844800 -13469.498892    348.197307                    
V 23  -7993.995787 -15424.100262 -25244.454977      -.019728                    
P 24 -20559.483884  15243.109080   6680.640450    331.279942                    
V 24   3369.541206  -8409.584436  30102.644799       .031596                    
P 25  -3060.680845 -15553.798641 -21331.146639    -46.467453                    
V 25  26806.140741   3567.724097  -6466.366252      -.021014                    
P 26  13515.378527  -4796.515134  21780.990567    -32.599358                    
V 26   8378.099006  27739.236617   1291.261210      -.076208                    
P 27  18198.525054 -18674.342708   5042.854548    199.485261                    
V 27  -1530.299307   5815.440903  31473.885451       .035088                    
P 28  19071.674338  13396.017554  13489.154345       .908892                    
V 28 -16187.890692  -1718.936521  25247.618900       .015106                    
P 29  -4798.966820 -25637.689587  -5042.778454    157.213870                    
V 29   4634.414547   5306.287959 -30864.794915       .028939                    
P 30  -9491.125822 -15339.905017 -19949.291607    288.567934                    
V 30  24331.193285   1929.665407 -13336.319795       .035620                    
P 31 -17568.466932    242.266695 -19768.297777       .461742                    
V 31  15642.575612 -20098.772240 -13828.301049       .034003                    
P 32 -15834.987248   9445.029091 -18651.549589   -111.664530                    
V 32 -23277.854837  -7865.661062  15875.856193      -.087834                    
EOF
